GSAT0201 (GALILEO 5)    
1 40128U 14050A   24037.03421368 -.00000047  00000+0  00000+0 0  9998
2 40128  49.7884 308.3720 1605831 146.1591 225.2380  1.85519517 62328
GSAT0202 (GALILEO 6)    
1 40129U 14050B   24036.75402768 -.00000046  00000+0  00000+0 0  9999
2 40129  49.8065 307.4577 1604211 146.9520 224.2095  1.85520193 64485
IRNSS-1C                
1 40269U 14061A   24038.09468817 -.00000158  00000+0  00000+0 0  9996
2 40269   4.3452 108.2195 0017741   0.5535 145.0677  1.00272077 34053
NAVSTAR 72 (USA 258)    
1 40294U 14068A   24037.87448797 -.00000004  00000+0  00000+0 0  9991
2 40294  56.3094  64.3668 0048696  59.9052 300.6456  2.00551115 67933
COSMOS 2501             
1 40315U 14075A   24036.80215464  .00000120  00000+0  00000+0 0  9996
2 40315  63.6289 220.2794 0018150 203.3199 156.6234  2.13101324 71481
NAVSTAR 73 (USA 260)    
1 40534U 15013A   24038.01676420  .00000096  00000+0  00000+0 0  9992
2 40534  53.3951 239.8343 0086950  28.9279 331.6007  2.00573547 64554
GSAT0203 (GALILEO 7)    
1 40544U 15017A   24037.52080971 -.00000067  00000+0  00000+0 0  9991
2 40544  56.9212   5.0468 0005078 280.4568  79.4797  1.70475645 54517
GSAT0204 (GALILEO 8)    
1 40545U 15017B   24037.18825429 -.00000067  00000+0  00000+0 0  9999
2 40545  56.9276   5.0709 0004529 270.2799  89.6627  1.70475414 17551
IRNSS-1D                
1 40547U 15018A   24037.62156524 -.00000236  00000+0  00000+0 0  9992
2 40547  27.7548 254.9707 0018590 176.7977  40.0045  1.00268839 32607
BEIDOU-3S IGSO-1S       
1 40549U 15019A   24037.65514786 -.00000161  00000+0  00000+0 0  9993
2 40549  50.8159 305.7453 0035042 194.1458 328.0156  1.00277931 32432
NAVSTAR 74 (USA 262)    
1 40730U 15033A   24038.17822704 -.00000017  00000+0  00000+0 0  9991
2 40730  54.7104 302.3955 0092324  16.6989 343.6585  2.00573761 62725
BEIDOU-3S M2S           
1 40748U 15037A   24037.51077498 -.00000072  00000+0  00000+0 0  9994
2 40748  55.5669 331.5068 0010754 266.0448  93.8451  1.86232972 58074
BEIDOU-3S M1S           
1 40749U 15037B   24038.31799170 -.00000071  00000+0  00000+0 0  9991
2 40749  55.5695 331.4662 0006865 332.7648  27.2126  1.86232856 58097
GSAT0205 (GALILEO 9)    
1 40889U 15045A   24036.95692677  .00000092  00000+0  00000+0 0  9999
2 40889  55.2815 245.4228 0006457  38.9800 321.1291  1.70473315 52315
GSAT0206 (GALILEO 10)   
1 40890U 15045B   24037.17756455  .00000092  00000+0  00000+0 0  9991
2 40890  55.2804 245.4122 0004384  39.2170 320.8774  1.70473339 52340
BEIDOU-3S IGSO-2S       
1 40938U 15053A   24017.60469617 -.00000107  00000+0  00000+0 0  9998
2 40938  50.5932 269.1737 0046153 191.7705 325.9662  1.00252427 30519
NAVSTAR 75 (USA 265)    
1 41019U 15062A   24038.23103400 -.00000003  00000+0  00000+0 0  9991
2 41019  56.2919  64.2052 0094673 224.5708 134.7303  2.00562251 60566
GSAT-15                 
1 41028U 15065A   24038.45478822 -.00000251  00000+0  00000+0 0  9996
2 41028   0.0621 262.4158 0001241  35.1665  96.6839  1.00270723 30161
GSAT0209 (GALILEO 12)   
1 41174U 15079A   24037.34778100 -.00000006  00000+0  00000+0 0  9990
2 41174  55.3643 124.9384 0003540 301.6609  58.3261  1.70474760 50087
GSAT0208 (GALILEO 11)   
1 41175U 15079B   24035.80772819 -.00000003  00000+0  00000+0 0  9998
2 41175  55.3634 124.9787 0002822 302.3417  57.6512  1.70474638 50638
IRNSS-1E                
1 41241U 16003A   24037.52738583 -.00000300  00000+0  00000+0 0  9991
2 41241  31.3313  75.4502 0021321 191.0748 171.1358  1.00266176 29444
NAVSTAR 76 (USA 266)    
1 41328U 16007A   24038.31435847 -.00000006  00000+0  00000+0 0  9999
2 41328  55.0728 123.6519 0076977 235.9202 123.3769  2.00568148 58573
COSMOS 2514             
1 41330U 16008A   24038.19170085 -.00000059  00000+0  00000+0 0  9997
2 41330  65.4551 342.3918 0009732 224.5302 135.3948  2.13102483 62272
IRNSS-1F                
1 41384U 16015A   24038.22783295  .00000163  00000+0  00000+0 0  9996
2 41384   3.2689 122.9152 0021523 187.5436 300.8441  1.00276403 29036
BEIDOU-2 IGSO-6         
1 41434U 16021A   24033.01166094 -.00000114  00000+0  00000+0 0  9990
2 41434  58.9717  46.7260 0049501 226.2454 315.0184  1.00254871 28790
IRNSS-1G                
1 41469U 16027A   24038.53389971 -.00000332  00000+0  00000+0 0  9999
2 41469   3.1526 124.2630 0004397 273.7608  60.8161  1.00267153 28543
GSAT0211 (GALILEO 14)   
1 41549U 16030A   24037.10326787  .00000092  00000+0  00000+0 0  9992
2 41549  55.4283 245.4112 0004183   9.1854 350.8850  1.70473410 47977
GSAT0210 (GALILEO 13)   
1 41550U 16030B   24037.98113537  .00000092  00000+0  00000+0 0  9997
2 41550  55.4274 245.3881 0001836 358.8397   1.2219  1.70473585 47989
COSMOS 2516             
1 41554U 16032A   24035.95606893  .00000124  00000+0  00000+0 0  9996
2 41554  63.8556 220.7528 0014760 210.3964 149.5456  2.13106456 59830
BEIDOU-2 G7             
1 41586U 16037A   24038.45818212 -.00000348  00000+0  00000+0 0  9993
2 41586   1.5921  67.6721 0009319 318.0364  26.7311  1.00277830 28154
EUTELSAT 117 WEST B     
1 41589U 16038B   24038.55362122 -.00000005  00000+0  00000+0 0  9992
2 41589   0.0149 221.8140 0000312  28.3370 329.2884  1.00272902 28032
GSAT0207 (GALILEO 15)   
1 41859U 16069A   24036.46835630 -.00000005  00000+0  00000+0 0  9993
2 41859  55.0287 124.9965 0003898 285.3663  74.6105  1.70474729 44690
GSAT0212 (GALILEO 16)   
1 41860U 16069B   24036.90939025 -.00000006  00000+0  00000+0 0  9998
2 41860  55.0264 124.9809 0001676 322.4531  37.5554  1.70475020 44953
GSAT0213 (GALILEO 17)   
1 41861U 16069C   24037.86330298 -.00000007  00000+0  00000+0 0  9993
2 41861  55.0289 124.9607 0004130 264.3191  95.6565  1.70473499 44833
GSAT0214 (GALILEO 18)   
1 41862U 16069D   24037.42325422 -.00000006  00000+0  00000+0 0  9998
2 41862  55.0677 124.9806 0100930 276.1512  82.7222  1.70457506 44950
SES-15                  
1 42709U 17026A   24038.54128212  .00000067  00000+0  00000+0 0  9991
2 42709   0.0196  43.6142 0000223 324.1327 195.0966  1.00269703 25516
QZS-2 (MICHIBIKI-2)     
1 42738U 17028A   24038.46270728 -.00000067  00000+0  00000+0 0  9997
2 42738  40.7844 255.6252 0750168 270.0110 279.7852  1.00271043 24507
QZS-3 (MICHIBIKI-3)     
1 42917U 17048A   24038.52966243 -.00000342  00000+0  00000+0 0  9995
2 42917   0.0596 163.9657 0001900 169.8827 120.9958  1.00270937 23629
COSMOS 2522             
1 42939U 17055A   24038.50205180  .00000107  00000+0  00000+0 0  9999
2 42939  64.0897 221.2359 0005313 229.4158 130.5593  2.13101881 49633
QZS-4 (MICHIBIKI-4)     
1 42965U 17062A   24037.74581892 -.00000300  00000+0  00000+0 0  9994
2 42965  40.5727 354.4592 0750436 269.1096 279.3694  1.00290709 23174
BEIDOU-3 M1             
1 43001U 17069A   24038.39610108  .00000003  00000+0  00000+0 0  9997
2 43001  55.9589  91.6166 0011373 292.2532  67.7024  1.86231156 42577
BEIDOU-3 M2             
1 43002U 17069B   24037.79612782 -.00000001  00000+0  00000+0 0  9990
2 43002  55.9582  91.6722 0008567 311.8514  48.1490  1.86231004 42558
GSAT0215 (GALILEO 19)   
1 43055U 17079A   24034.39306818  .00000082  00000+0  00000+0 0  9990
2 43055  55.4063 245.3098 0001544   8.1107 351.9480  1.70474171 38243
GSAT0216 (GALILEO 20)   
1 43056U 17079B   24037.03121240  .00000093  00000+0  00000+0 0  9991
2 43056  55.4061 245.2367 0002303 329.5781  30.4709  1.70474256 38306
GSAT0217 (GALILEO 21)   
1 43057U 17079C   24038.42479614  .00000091  00000+0  00000+0 0  9995
2 43057  55.4039 245.1972 0002895 352.8758   7.1807  1.70474114 38316
GSAT0218 (GALILEO 22)   
1 43058U 17079D   24038.05823397  .00000092  00000+0  00000+0 0  9997
2 43058  55.4030 245.2047 0002600 314.0671  45.9731  1.70474164 38333
BEIDOU-3 M7             
1 43107U 18003A   24038.08303805 -.00000072  00000+0  00000+0 0  9999
2 43107  55.0241 332.1357 0004091  47.5390 312.5080  1.86232241 41317
BEIDOU-3 M8             
1 43108U 18003B   24038.02240962 -.00000073  00000+0  00000+0 0  9999
2 43108  55.0169 332.1240 0004032 279.5622  80.4047  1.86230712 41324
BEIDOU-3 M4             
1 43207U 18018A   24035.77936945 -.00000016  00000+0  00000+0 0  9994
2 43207  55.9159  91.7981 0005156 331.8027  28.2358  1.86231258 40668
BEIDOU-3 M3             
1 43208U 18018B   24037.99378154  .00000000  00000+0  00000+0 0  9995
2 43208  55.9169  91.7283 0008831 300.5701  59.4171  1.86231250 40706
BEIDOU-3 M9             
1 43245U 18029A   24038.21582768 -.00000070  00000+0  00000+0 0  9990
2 43245  54.9123 329.8519 0001628 316.8027  43.2002  1.86232294 39869
BEIDOU-3 M10            
1 43246U 18029B   24038.14565095 -.00000070  00000+0  00000+0 0  9997
2 43246  54.9086 329.8818 0005008 352.3576   7.6502  1.86232657 39840
IRNSS-1I                
1 43286U 18035A   24037.72255934  .00000078  00000+0  00000+0 0  9996
2 43286  28.8069  87.7174 0021115 186.1936 177.6385  1.00269386 21449
COSMOS 2527             
1 43508U 18053A   24038.46091338  .00000019  00000+0  00000+0 0  9996
2 43508  65.1495 102.7120 0009637 235.4163 124.5641  2.13102307 43935
BEIDOU-2 IGSO-7         
1 43539U 18057A   24037.72949444 -.00000127  00000+0  00000+0 0  9993
2 43539  55.1380 170.5172 0069832 230.6153 108.7924  1.00292878 20492
GSAT0221 (GALILEO 25)   
1 43564U 18060A   24037.37129848 -.00000067  00000+0  00000+0 0  9997
2 43564  57.3013   5.0183 0005751 292.7472  67.1858  1.70475467 34475
GSAT0222 (GALILEO 26)   
1 43565U 18060B   24037.58960900 -.00000067  00000+0  00000+0 0  9993
2 43565  57.3043   5.0137 0004443 271.6969  88.2454  1.70475166 34520
GSAT0219 (GALILEO 23)   
1 43566U 18060C   24037.22512326 -.00000066  00000+0  00000+0 0  9999
2 43566  57.3041   5.0256 0005089 300.3258  59.6180  1.70475468 34498
GSAT0220 (GALILEO 24)   
1 43567U 18060D   24037.44564111 -.00000067  00000+0  00000+0 0  9994
2 43567  57.3036   5.0204 0005142 296.6447  63.2962  1.70475364 34486
BEIDOU-3 M5             
1 43581U 18062A   24034.07116979  .00000114  00000+0  00000+0 0  9995
2 43581  54.1523 211.7367 0001610 348.0827  11.9152  1.86228725 37527
